<?xml version="1.0" encoding="UTF-8"?>
<gpx creator="StravaGPX" xmlns:xsi="http://www.w3.org/2001/XMLSchema-instance" xsi:schemaLocation="http://www.topografix.com/GPX/1/1 http://www.topografix.com/GPX/1/1/gpx.xsd http://www.garmin.com/xmlschemas/GpxExtensions/v3 http://www.garmin.com/xmlschemas/GpxExtensionsv3.xsd http://www.garmin.com/xmlschemas/TrackPointExtension/v1 http://www.garmin.com/xmlschemas/TrackPointExtensionv1.xsd" version="1.1" xmlns="http://www.topografix.com/GPX/1/1" xmlns:gpxtpx="http://www.garmin.com/xmlschemas/TrackPointExtension/v1" xmlns:gpx="http://www.garmin.com/xmlschemas/GpxExtensions/v3">
 <metadata>
  <time>2024-06-01T06:00:00Z</time>
 </metadata>
 <trk>
  <name>Morning Run</name>
  <type>running</type>
  <trkseg>
   <trkpt lat="48.8566000" lon="2.3522000">
    <ele>35.2</ele>
    <time>2024-06-01T06:00:00Z</time>
   </trkpt>
   <trkpt lat="48.8570000" lon="2.3530000">
    <ele>35.6</ele>
    <time>2024-06-01T06:00:20Z</time>
   </trkpt>
   <trkpt lat="48.8575000" lon="2.3540000">
    <ele>36.1</ele>
    <time>2024-06-01T06:00:40Z</time>
   </trkpt>
  </trkseg>
 </trk>
</gpx>
